{
  "type": "Feature",
  "geometry": {"type": "LineString", "coordinates": [
    [-84.4, 33.8], [-83.9, 34.9], [-82.3, 35.6], [-81.6, 36.2], [-80.4, 37.1], [-79.9, 37.9], [-79.4, 38.6],
    [-79.1, 39.4], [-78.6, 40.1], [-78.4, 40.9], [-78.1, 41.6], [-78.0, 42.0]
  ]},
  "properties": {
    "id": "geo.line.proclamation-1763",
    "type": "line",
    "name": "Proclamation Line of 1763",
    "validFrom": "1763-10-07",
    "validTo": "1768-11-05",
    "precision": "approximate",
    "sources": ["Royal Proclamation of 1763: settlement barred beyond 'the heads or sources of any of the rivers which fall into the Atlantic Ocean from the west and northwest'; drawn along the Eastern Continental Divide (Georgia to Pennsylvania). Superseded in part by the Treaties of Hard Labour and Fort Stanwix (1768)."],
    "units": [3],
    "review": {"status": "candidate", "notes": "Seed for the u3e1 sample. Northern end (New York) not drawn; extend from a period map before approving."}
  }
}
